[{"OBJECT_NAME":"STARLINK-35471","OBJECT_ID":"2025-223L","EPOCH":"2026-03-09T22:03:55.960416","MEAN_MOTION":15.30215247,"ECCENTRICITY":0.00011472,"INCLINATION":53.1576,"RA_OF_ASC_NODE":292.9085,"ARG_OF_PERICENTER":57.7035,"MEAN_ANOMALY":302.4077,"EPHEMERIS_TYPE":0,"CLASSIFICATION_TYPE":"U","NORAD_CAT_ID":65864,"ELEMENT_SET_NO":999,"REV_AT_EPOCH":2424,"BSTAR":0.0011246856,"MEAN_MOTION_DOT":0.00033115,"MEAN_MOTION_DDOT":0},{"OBJECT_NAME":"CZ-2C R\/B","OBJECT_ID":"2024-218A","EPOCH":"2026-03-09T22:16:31.791072","MEAN_MOTION":15.22960743,"ECCENTRICITY":0.00453409,"INCLINATION":97.5416,"RA_OF_ASC_NODE":83.973,"ARG_OF_PERICENTER":359.5317,"MEAN_ANOMALY":0.5869,"EPHEMERIS_TYPE":0,"CLASSIFICATION_TYPE":"U","NORAD_CAT_ID":62078,"ELEMENT_SET_NO":999,"REV_AT_EPOCH":7134,"BSTAR":0.00039378379,"MEAN_MOTION_DOT":9.445e-5,"MEAN_MOTION_DDOT":0}]
